{
    "type": "Feature",
    "properties": {
        "type": "other"
    },
    "geometry": {
        "type": "Polygon",
        "coordinates": [
            [
                [
                    -119.20047081477973,
                    40.801465836870946
                ],
                [
                    -119.19963723407568,
                    40.80136869456518
                ],
                [
                    -119.19881004732578,
                    40.8012441148241
                ],
                [
                    -119.19799083010717,
                    40.80109233494609
                ],
                [
                    -119.1971811427873,
                    40.80091364403823
                ],
                [
                    -119.19638252754673,
                    40.80070838246467
                ],
                [
                    -119.19559650543646,
                    40.80047694119701
                ],
                [
                    -119.19531938717783,
                    40.80098325940325
                ],
                [
                    -119.19613485364225,
                    40.801223370730256
                ],
                [
                    -119.196963385295,
                    40.80143632166758
                ],
                [
                    -119.19780340407327,
                    40.80162170658783
                ],
                [
                    -119.19865330999063,
                    40.801779172367944
                ],
                [
                    -119.19951148419003,
                    40.801908419063246
                ],
                [
                    -119.20037629203317,
                    40.802009200479816
                ],
                [
                    -119.20047081477973,
                    40.801465836870946
                ]
            ]
        ]
    }
}