{
    "type": "FeatureCollection",
    "features": [
        {
            "type": "Feature",
            "properties": {
                "ref": "fence",
                "name": "Fence"
            },
            "geometry": {
                "type": "LineString",
                "coordinates": [
                    [
                        -119.20771404189364,
                        40.764386464298674
                    ],
                    [
                        -119.2328036933635,
                        40.783379199595934
                    ],
                    [
                        -119.21670095348695,
                        40.807319178960725
                    ],
                    [
                        -119.18164627139987,
                        40.80311539981607
                    ],
                    [
                        -119.17610503985615,
                        40.776579927046754
                    ],
                    [
                        -119.20771404189364,
                        40.764386464298674
                    ]
                ]
            }
        }
    ]
}