{
    "type": "FeatureCollection",
    "features": [
        {
            "type": "Feature",
            "properties": {
                "name": "The Man",
                "ref": "center"
            },
            "geometry": {
                "type": "Point",
                "coordinates": [
                    -119.20299400000003,
                    40.786958
                ]
            }
        },
        {
            "type": "Feature",
            "properties": {
                "name": "Center Camp",
                "ref": "centerCamp"
            },
            "geometry": {
                "type": "Point",
                "coordinates": [
                    -119.21073980584796,
                    40.781092534406106
                ]
            }
        },
        {
            "type": "Feature",
            "properties": {
                "name": "DPW",
                "ref": "dpw"
            },
            "geometry": {
                "type": "Point",
                "coordinates": [
                    -119.21459457659839,
                    40.771740804119986
                ]
            }
        },
        {
            "type": "Feature",
            "properties": {
                "name": "Services",
                "ref": "services"
            },
            "geometry": {
                "type": "Point",
                "coordinates": [
                    -119.2230887331392,
                    40.7781709402467
                ]
            }
        },
        {
            "type": "Feature",
            "properties": {
                "name": "Black Rock City Airport",
                "ref": "airport"
            },
            "geometry": {
                "type": "Point",
                "coordinates": [
                    -119.20761386413425,
                    40.764865681932385
                ]
            }
        },
        {
            "type": "Feature",
            "properties": {
                "name": "First Aid (Main)",
                "ref": "EmergencyClinic"
            },
            "geometry": {
                "type": "Point",
                "coordinates": [
                    -119.20647911300206,
                    40.78042621531956
                ]
            }
        },
        {
            "type": "Feature",
            "properties": {
                "name": "First Aid (3:00)",
                "ref": "firstAid"
            },
            "geometry": {
                "type": "Point",
                "coordinates": [
                    -119.19416426665745,
                    40.78015387680222
                ]
            }
        },
        {
            "type": "Feature",
            "properties": {
                "name": "First Aid (9:00)",
                "ref": "firstAid"
            },
            "geometry": {
                "type": "Point",
                "coordinates": [
                    -119.21182554280705,
                    40.79376145003799
                ]
            }
        },
        {
            "type": "Feature",
            "properties": {
                "name": "Ranger HQ",
                "ref": "rangerHQ"
            },
            "geometry": {
                "type": "Point",
                "coordinates": [
                    -119.20795183253536,
                    40.781790840432514
                ]
            }
        },
        {
            "type": "Feature",
            "properties": {
                "name": "Ranger Outpost (Berlin)",
                "ref": "ranger"
            },
            "geometry": {
                "type": "Point",
                "coordinates": [
                    -119.1940087821484,
                    40.780271588976696
                ]
            }
        },
        {
            "type": "Feature",
            "properties": {
                "name": "Ranger Outpost (Tokyo)",
                "ref": "ranger"
            },
            "geometry": {
                "type": "Point",
                "coordinates": [
                    -119.21198102731606,
                    40.79364371394965
                ]
            }
        },
        {
            "type": "Feature",
            "properties": {
                "name": "Greeters",
                "ref": "greeters"
            },
            "geometry": {
                "type": "Point",
                "coordinates": [
                    -119.21988659318478,
                    40.77416418270594
                ]
            }
        },
        {
            "type": "Feature",
            "properties": {
                "ref": "ice"
            },
            "geometry": {
                "type": "Point",
                "coordinates": [
                    -119.19114614125994,
                    40.778293521430044
                ]
            }
        },
        {
            "type": "Feature",
            "properties": {
                "ref": "ice"
            },
            "geometry": {
                "type": "Point",
                "coordinates": [
                    -119.21143788333255,
                    40.78196237494074
                ]
            }
        },
        {
            "type": "Feature",
            "properties": {
                "ref": "ice"
            },
            "geometry": {
                "type": "Point",
                "coordinates": [
                    -119.21504284805454,
                    40.79546334873508
                ]
            }
        },
        {
            "type": "Feature",
            "properties": {
                "name": "The Temple",
                "ref": "temple"
            },
            "geometry": {
                "type": "Point",
                "coordinates": [
                    -119.19655518556866,
                    40.7918325714424
                ]
            }
        },
        {
            "type": "Feature",
            "properties": {
                "ref": "bus",
                "name": "Burner Express Bus"
            },
            "geometry": {
                "type": "Point",
                "coordinates": [
                    -119.2181697315831,
                    40.776967215616224
                ]
            }
        },
        {
            "type": "Feature",
            "properties": {
                "ref": "recycle",
                "name": "Recycle Camp"
            },
            "geometry": {
                "type": "Point",
                "coordinates": [
                    -119.21134165493781,
                    40.780296745679436
                ]
            }
        },
        {
            "type": "Feature",
            "properties": {
                "ref": "info",
                "name": "Playa Info"
            },
            "geometry": {
                "type": "Point",
                "coordinates": [
                    -119.2092677497823,
                    40.78168185652328
                ]
            }
        }
    ]
}