{
    "type": "FeatureCollection",
    "features": [
        {
            "type": "Feature",
            "properties": {
                "ref": "toilet"
            },
            "geometry": {
                "type": "Polygon",
                "coordinates": [
                    [
                        [
                            -119.1900145106795,
                            40.804000378361984
                        ],
                        [
                            -119.18988651920894,
                            40.80390349507887
                        ],
                        [
                            -119.19027049193913,
                            40.803612844805265
                        ],
                        [
                            -119.19039848303602,
                            40.803709727946945
                        ],
                        [
                            -119.1900145106795,
                            40.804000378361984
                        ]
                    ]
                ]
            }
        },
        {
            "type": "Feature",
            "properties": {
                "ref": "toilet"
            },
            "geometry": {
                "type": "Polygon",
                "coordinates": [
                    [
                        [
                            -119.18060896338216,
                            40.79687759052283
                        ],
                        [
                            -119.18048098564535,
                            40.796780707239755
                        ],
                        [
                            -119.1808649171748,
                            40.796490056966306
                        ],
                        [
                            -119.18099289453805,
                            40.796586940108
                        ],
                        [
                            -119.18060896338216,
                            40.79687759052283
                        ]
                    ]
                ]
            }
        },
        {
            "type": "Feature",
            "properties": {
                "ref": "toilet"
            },
            "geometry": {
                "type": "Polygon",
                "coordinates": [
                    [
                        [
                            -119.20039290491471,
                            40.801388967857726
                        ],
                        [
                            -119.20057235620936,
                            40.80140685552108
                        ],
                        [
                            -119.20050146423512,
                            40.80181437809009
                        ],
                        [
                            -119.20032201188705,
                            40.801796490148725
                        ],
                        [
                            -119.20039290491471,
                            40.801388967857726
                        ]
                    ]
                ]
            }
        },
        {
            "type": "Feature",
            "properties": {
                "ref": "toilet"
            },
            "geometry": {
                "type": "Polygon",
                "coordinates": [
                    [
                        [
                            -119.19792684482672,
                            40.801008424265795
                        ],
                        [
                            -119.19810167419637,
                            40.80104389347186
                        ],
                        [
                            -119.19796110481853,
                            40.80144092204768
                        ],
                        [
                            -119.19778627449656,
                            40.80140545257774
                        ],
                        [
                            -119.19792684482672,
                            40.801008424265795
                        ]
                    ]
                ]
            }
        },
        {
            "type": "Feature",
            "properties": {
                "ref": "toilet"
            },
            "geometry": {
                "type": "Polygon",
                "coordinates": [
                    [
                        [
                            -119.19554753991859,
                            40.800387425241574
                        ],
                        [
                            -119.19571475420932,
                            40.80043986871514
                        ],
                        [
                            -119.19550691569796,
                            40.80081960718616
                        ],
                        [
                            -119.19533970058272,
                            40.80076716347122
                        ],
                        [
                            -119.19554753991859,
                            40.800387425241574
                        ]
                    ]
                ]
            }
        },
        {
            "type": "Feature",
            "properties": {
                "ref": "toilet"
            },
            "geometry": {
                "type": "Polygon",
                "coordinates": [
                    [
                        [
                            -119.1944920772452,
                            40.792385324388896
                        ],
                        [
                            -119.19436410816763,
                            40.79228844110581
                        ],
                        [
                            -119.1947480137198,
                            40.79199779083246
                        ],
                        [
                            -119.19487598242394,
                            40.79209467397418
                        ],
                        [
                            -119.1944920772452,
                            40.792385324388896
                        ]
                    ]
                ]
            }
        },
        {
            "type": "Feature",
            "properties": {
                "ref": "toilet"
            },
            "geometry": {
                "type": "Polygon",
                "coordinates": [
                    [
                        [
                            -119.20094328387123,
                            40.787541829177435
                        ],
                        [
                            -119.20081532412769,
                            40.787444945894364
                        ],
                        [
                            -119.20119920167814,
                            40.78715429562112
                        ],
                        [
                            -119.2013271610483,
                            40.78725117876285
                        ],
                        [
                            -119.20094328387123,
                            40.787541829177435
                        ]
                    ]
                ]
            }
        },
        {
            "type": "Feature",
            "properties": {
                "ref": "toilet"
            },
            "geometry": {
                "type": "Polygon",
                "coordinates": [
                    [
                        [
                            -119.19938568500952,
                            40.78513655400193
                        ],
                        [
                            -119.19925772990044,
                            40.78503967071887
                        ],
                        [
                            -119.19964159354778,
                            40.78474902044568
                        ],
                        [
                            -119.19976954828356,
                            40.78484590358741
                        ],
                        [
                            -119.19938568500952,
                            40.78513655400193
                        ]
                    ]
                ]
            }
        },
        {
            "type": "Feature",
            "properties": {
                "ref": "toilet"
            },
            "geometry": {
                "type": "Polygon",
                "coordinates": [
                    [
                        [
                            -119.18603893487901,
                            40.78406820631547
                        ],
                        [
                            -119.18586304541645,
                            40.7840360201241
                        ],
                        [
                            -119.18599056854752,
                            40.783636481642326
                        ],
                        [
                            -119.1861664570372,
                            40.78366866756662
                        ],
                        [
                            -119.18603893487901,
                            40.78406820631547
                        ]
                    ]
                ]
            }
        },
        {
            "type": "Feature",
            "properties": {
                "ref": "toilet"
            },
            "geometry": {
                "type": "Polygon",
                "coordinates": [
                    [
                        [
                            -119.19263271641985,
                            40.78540556441245
                        ],
                        [
                            -119.1924561656709,
                            40.785375513593706
                        ],
                        [
                            -119.19257523071964,
                            40.784974481076716
                        ],
                        [
                            -119.19275178048237,
                            40.78500453162639
                        ],
                        [
                            -119.19263271641985,
                            40.78540556441245
                        ]
                    ]
                ]
            }
        },
        {
            "type": "Feature",
            "properties": {
                "ref": "toilet"
            },
            "geometry": {
                "type": "Polygon",
                "coordinates": [
                    [
                        [
                            -119.19178541634021,
                            40.78211776859576
                        ],
                        [
                            -119.19169686562594,
                            40.78223725479214
                        ],
                        [
                            -119.19122346527573,
                            40.78203610266212
                        ],
                        [
                            -119.19131201556252,
                            40.78191661639805
                        ],
                        [
                            -119.19178541634021,
                            40.78211776859576
                        ]
                    ]
                ]
            }
        },
        {
            "type": "Feature",
            "properties": {
                "ref": "toilet"
            },
            "geometry": {
                "type": "Polygon",
                "coordinates": [
                    [
                        [
                            -119.19648321398785,
                            40.77852295355884
                        ],
                        [
                            -119.19632764007397,
                            40.778592912767145
                        ],
                        [
                            -119.19605047951586,
                            40.778239492467
                        ],
                        [
                            -119.19620605243819,
                            40.77816953304976
                        ],
                        [
                            -119.19648321398785,
                            40.77852295355884
                        ]
                    ]
                ]
            }
        },
        {
            "type": "Feature",
            "properties": {
                "ref": "toilet"
            },
            "geometry": {
                "type": "Polygon",
                "coordinates": [
                    [
                        [
                            -119.19958808711533,
                            40.77753445646836
                        ],
                        [
                            -119.19941390709245,
                            40.777571545990156
                        ],
                        [
                            -119.19926696991062,
                            40.77717585202271
                        ],
                        [
                            -119.19944114879875,
                            40.77713876223903
                        ],
                        [
                            -119.19958808711533,
                            40.77753445646836
                        ]
                    ]
                ]
            }
        },
        {
            "type": "Feature",
            "properties": {
                "ref": "toilet"
            },
            "geometry": {
                "type": "Polygon",
                "coordinates": [
                    [
                        [
                            -119.20292497400739,
                            40.77718807109438
                        ],
                        [
                            -119.20274405336205,
                            40.777189764418225
                        ],
                        [
                            -119.20273734444228,
                            40.77677875515685
                        ],
                        [
                            -119.2029182639637,
                            40.77677706155046
                        ],
                        [
                            -119.20292497400739,
                            40.77718807109438
                        ]
                    ]
                ]
            }
        },
        {
            "type": "Feature",
            "properties": {
                "ref": "toilet"
            },
            "geometry": {
                "type": "Polygon",
                "coordinates": [
                    [
                        [
                            -119.20626656617246,
                            40.77750739396611
                        ],
                        [
                            -119.20609122895883,
                            40.777473575754854
                        ],
                        [
                            -119.20622520502133,
                            40.777075252364924
                        ],
                        [
                            -119.20640054127288,
                            40.77710907031081
                        ],
                        [
                            -119.20626656617246,
                            40.77750739396611
                        ]
                    ]
                ]
            }
        },
        {
            "type": "Feature",
            "properties": {
                "ref": "toilet"
            },
            "geometry": {
                "type": "Polygon",
                "coordinates": [
                    [
                        [
                            -119.20938523434427,
                            40.77847067392161
                        ],
                        [
                            -119.2092274247582,
                            40.7784036478551
                        ],
                        [
                            -119.2094929633567,
                            40.77804514774528
                        ],
                        [
                            -119.20965077225034,
                            40.77811217359684
                        ],
                        [
                            -119.20938523434427,
                            40.77847067392161
                        ]
                    ]
                ]
            }
        },
        {
            "type": "Feature",
            "properties": {
                "ref": "toilet"
            },
            "geometry": {
                "type": "Polygon",
                "coordinates": [
                    [
                        [
                            -119.1876408030546,
                            40.780305992732586
                        ],
                        [
                            -119.18755172797538,
                            40.780425254213206
                        ],
                        [
                            -119.18707923083821,
                            40.7802229054232
                        ],
                        [
                            -119.18716830548615,
                            40.7801036438741
                        ],
                        [
                            -119.1876408030546,
                            40.780305992732586
                        ]
                    ]
                ]
            }
        },
        {
            "type": "Feature",
            "properties": {
                "ref": "toilet"
            },
            "geometry": {
                "type": "Polygon",
                "coordinates": [
                    [
                        [
                            -119.19409011281535,
                            40.775384852830285
                        ],
                        [
                            -119.19393424025796,
                            40.77545442035575
                        ],
                        [
                            -119.19365864446686,
                            40.77510030489624
                        ],
                        [
                            -119.1938145160302,
                            40.77503073716105
                        ],
                        [
                            -119.19409011281535,
                            40.775384852830285
                        ]
                    ]
                ]
            }
        },
        {
            "type": "Feature",
            "properties": {
                "ref": "toilet"
            },
            "geometry": {
                "type": "Polygon",
                "coordinates": [
                    [
                        [
                            -119.19834891057334,
                            40.774034291277346
                        ],
                        [
                            -119.19817457864869,
                            40.774070944230346
                        ],
                        [
                            -119.19802937866191,
                            40.77367488431308
                        ],
                        [
                            -119.19820370945115,
                            40.773638231097756
                        ],
                        [
                            -119.19834891057334,
                            40.774034291277346
                        ]
                    ]
                ]
            }
        },
        {
            "type": "Feature",
            "properties": {
                "ref": "toilet"
            },
            "geometry": {
                "type": "Polygon",
                "coordinates": [
                    [
                        [
                            -119.20750402955332,
                            40.77400687771856
                        ],
                        [
                            -119.20732884900163,
                            40.77397262417308
                        ],
                        [
                            -119.20746454256546,
                            40.77357463570628
                        ],
                        [
                            -119.2076397221581,
                            40.77360888898687
                        ],
                        [
                            -119.20750402955332,
                            40.77400687771856
                        ]
                    ]
                ]
            }
        },
        {
            "type": "Feature",
            "properties": {
                "ref": "toilet"
            },
            "geometry": {
                "type": "Polygon",
                "coordinates": [
                    [
                        [
                            -119.21177680073193,
                            40.775331895377086
                        ],
                        [
                            -119.21161928860127,
                            40.775264479266525
                        ],
                        [
                            -119.21188635983206,
                            40.7749066379808
                        ],
                        [
                            -119.21204387127418,
                            40.7749740538772
                        ],
                        [
                            -119.21177680073193,
                            40.775331895377086
                        ]
                    ]
                ]
            }
        },
        {
            "type": "Feature",
            "properties": {
                "ref": "toilet"
            },
            "geometry": {
                "type": "Polygon",
                "coordinates": [
                    [
                        [
                            -119.20292395787577,
                            40.772803904084235
                        ],
                        [
                            -119.20274304201884,
                            40.772805080288386
                        ],
                        [
                            -119.20273838205502,
                            40.772394054779234
                        ],
                        [
                            -119.20291929678957,
                            40.77239287829256
                        ],
                        [
                            -119.20292395787577,
                            40.772803904084235
                        ]
                    ]
                ]
            }
        },
        {
            "type": "Feature",
            "properties": {
                "ref": "toilet"
            },
            "geometry": {
                "type": "Polygon",
                "coordinates": [
                    [
                        [
                            -119.1897277706055,
                            40.77698630365248
                        ],
                        [
                            -119.18960091432804,
                            40.777084000397274
                        ],
                        [
                            -119.18921387343187,
                            40.776795811590716
                        ],
                        [
                            -119.18934072897247,
                            40.776698114707024
                        ],
                        [
                            -119.1897277706055,
                            40.77698630365248
                        ]
                    ]
                ]
            }
        },
        {
            "type": "Feature",
            "properties": {
                "ref": "toilet"
            },
            "geometry": {
                "type": "Polygon",
                "coordinates": [
                    [
                        [
                            -119.19261080873957,
                            40.7797322395595
                        ],
                        [
                            -119.19247997562614,
                            40.77963759398722
                        ],
                        [
                            -119.19285494263,
                            40.77934038219304
                        ],
                        [
                            -119.19298577534447,
                            40.779435027617566
                        ],
                        [
                            -119.19261080873957,
                            40.7797322395595
                        ]
                    ]
                ]
            }
        },
        {
            "type": "Feature",
            "properties": {
                "ref": "toilet"
            },
            "geometry": {
                "type": "Polygon",
                "coordinates": [
                    [
                        [
                            -119.21236392998227,
                            40.780033852610735
                        ],
                        [
                            -119.2124960079326,
                            40.77994020318615
                        ],
                        [
                            -119.21286703341423,
                            40.7802402402856
                        ],
                        [
                            -119.21273495468111,
                            40.780333889559614
                        ],
                        [
                            -119.21236392998227,
                            40.780033852610735
                        ]
                    ]
                ]
            }
        },
        {
            "type": "Feature",
            "properties": {
                "ref": "toilet"
            },
            "geometry": {
                "type": "Polygon",
                "coordinates": [
                    [
                        [
                            -119.21616118908034,
                            40.77691127388959
                        ],
                        [
                            -119.21603213663869,
                            40.77681524096664
                        ],
                        [
                            -119.21641258392208,
                            40.77652206181811
                        ],
                        [
                            -119.21654163598076,
                            40.776618094597296
                        ],
                        [
                            -119.21616118908034,
                            40.77691127388959
                        ]
                    ]
                ]
            }
        },
        {
            "type": "Feature",
            "properties": {
                "ref": "toilet"
            },
            "geometry": {
                "type": "Polygon",
                "coordinates": [
                    [
                        [
                            -119.21429113373449,
                            40.78223725482599
                        ],
                        [
                            -119.21420258317953,
                            40.782117768561925
                        ],
                        [
                            -119.21467598267812,
                            40.781916616431914
                        ],
                        [
                            -119.21476453312421,
                            40.7820361026283
                        ],
                        [
                            -119.21429113373449,
                            40.78223725482599
                        ]
                    ]
                ]
            }
        },
        {
            "type": "Feature",
            "properties": {
                "ref": "toilet"
            },
            "geometry": {
                "type": "Polygon",
                "coordinates": [
                    [
                        [
                            -119.21552005670925,
                            40.78461194587247
                        ],
                        [
                            -119.21547536102459,
                            40.78447917760369
                        ],
                        [
                            -119.21600140286766,
                            40.78437764944214
                        ],
                        [
                            -119.21604609857333,
                            40.78451041769367
                        ],
                        [
                            -119.21552005670925,
                            40.78461194587247
                        ]
                    ]
                ]
            }
        },
        {
            "type": "Feature",
            "properties": {
                "ref": "toilet"
            },
            "geometry": {
                "type": "Polygon",
                "coordinates": [
                    [
                        [
                            -119.2158954393089,
                            40.78714655473584
                        ],
                        [
                            -119.21589764912152,
                            40.78700955139907
                        ],
                        [
                            -119.2164404923381,
                            40.787014569560874
                        ],
                        [
                            -119.21643828252074,
                            40.78715157289759
                        ],
                        [
                            -119.2158954393089,
                            40.78714655473584
                        ]
                    ]
                ]
            }
        },
        {
            "type": "Feature",
            "properties": {
                "ref": "toilet"
            },
            "geometry": {
                "type": "Polygon",
                "coordinates": [
                    [
                        [
                            -119.21539160443066,
                            40.7896683611606
                        ],
                        [
                            -119.21544057450015,
                            40.789536459337874
                        ],
                        [
                            -119.21596322486069,
                            40.7896476859892
                        ],
                        [
                            -119.21591425461189,
                            40.789779587791216
                        ],
                        [
                            -119.21539160443066,
                            40.7896683611606
                        ]
                    ]
                ]
            }
        },
        {
            "type": "Feature",
            "properties": {
                "ref": "toilet"
            },
            "geometry": {
                "type": "Polygon",
                "coordinates": [
                    [
                        [
                            -119.21404279347325,
                            40.792005498132454
                        ],
                        [
                            -119.2141351911499,
                            40.791887687769126
                        ],
                        [
                            -119.21460202235079,
                            40.79209754622417
                        ],
                        [
                            -119.21450962421817,
                            40.79221535651379
                        ],
                        [
                            -119.21404279347325,
                            40.792005498132454
                        ]
                    ]
                ]
            }
        },
        {
            "type": "Feature",
            "properties": {
                "ref": "toilet"
            },
            "geometry": {
                "type": "Polygon",
                "coordinates": [
                    [
                        [
                            -119.20922901866768,
                            40.79551200066988
                        ],
                        [
                            -119.20938685574193,
                            40.79544495704214
                        ],
                        [
                            -119.2096525349488,
                            40.795803426988364
                        ],
                        [
                            -119.20949469686289,
                            40.79587047040104
                        ],
                        [
                            -119.20922901866768,
                            40.79551200066988
                        ]
                    ]
                ]
            }
        },
        {
            "type": "Feature",
            "properties": {
                "ref": "toilet"
            },
            "geometry": {
                "type": "Polygon",
                "coordinates": [
                    [
                        [
                            -119.21843627138479,
                            40.78042525424744
                        ],
                        [
                            -119.2183471964655,
                            40.78030599269833
                        ],
                        [
                            -119.21881969275432,
                            40.780103643908326
                        ],
                        [
                            -119.21890876756218,
                            40.78022290538894
                        ],
                        [
                            -119.21843627138479,
                            40.78042525424744
                        ]
                    ]
                ]
            }
        },
        {
            "type": "Feature",
            "properties": {
                "ref": "toilet"
            },
            "geometry": {
                "type": "Polygon",
                "coordinates": [
                    [
                        [
                            -119.2201434810121,
                            40.783673992657164
                        ],
                        [
                            -119.22009819933777,
                            40.783541338400354
                        ],
                        [
                            -119.22062378202027,
                            40.78343847770345
                        ],
                        [
                            -119.22066906371492,
                            40.78357113194255
                        ],
                        [
                            -119.2201434810121,
                            40.783673992657164
                        ]
                    ]
                ]
            }
        },
        {
            "type": "Feature",
            "properties": {
                "ref": "toilet"
            },
            "geometry": {
                "type": "Polygon",
                "coordinates": [
                    [
                        [
                            -119.22001539894897,
                            40.790606447581396
                        ],
                        [
                            -119.22006378633101,
                            40.79047442240581
                        ],
                        [
                            -119.22058693284777,
                            40.79058432401924
                        ],
                        [
                            -119.22053854528944,
                            40.79071634917463
                        ],
                        [
                            -119.22001539894897,
                            40.790606447581396
                        ]
                    ]
                ]
            }
        },
        {
            "type": "Feature",
            "properties": {
                "ref": "toilet"
            },
            "geometry": {
                "type": "Polygon",
                "coordinates": [
                    [
                        [
                            -119.21818847954675,
                            40.793817727495956
                        ],
                        [
                            -119.21828035924149,
                            40.793699684041
                        ],
                        [
                            -119.21874812684258,
                            40.7939083603241
                        ],
                        [
                            -119.2186562466957,
                            40.79402640370619
                        ],
                        [
                            -119.21818847954675,
                            40.793817727495956
                        ]
                    ]
                ]
            }
        },
        {
            "type": "Feature",
            "properties": {
                "ref": "toilet"
            },
            "geometry": {
                "type": "Polygon",
                "coordinates": [
                    [
                        [
                            -119.21162230999998,
                            40.79865085649618
                        ],
                        [
                            -119.21177985949844,
                            40.798583416347235
                        ],
                        [
                            -119.2120471226685,
                            40.798941216248615
                        ],
                        [
                            -119.21188957216074,
                            40.79900865618326
                        ],
                        [
                            -119.21162230999998,
                            40.79865085649618
                        ]
                    ]
                ]
            }
        },
        {
            "type": "Feature",
            "properties": {
                "ref": "toilet"
            },
            "geometry": {
                "type": "Polygon",
                "coordinates": [
                    [
                        [
                            -119.22168653034333,
                            40.78714654341359
                        ],
                        [
                            -119.22168804521853,
                            40.78700953466156
                        ],
                        [
                            -119.22223090987889,
                            40.78701297432183
                        ],
                        [
                            -119.22222939500048,
                            40.787149983073846
                        ],
                        [
                            -119.22168653034333,
                            40.78714654341359
                        ]
                    ]
                ]
            }
        },
        {
            "type": "Feature",
            "properties": {
                "ref": "toilet"
            },
            "geometry": {
                "type": "Polygon",
                "coordinates": [
                    [
                        [
                            -119.21603608462982,
                            40.7970992646059
                        ],
                        [
                            -119.21616513784862,
                            40.797003202062925
                        ],
                        [
                            -119.21654582154451,
                            40.79729629261439
                        ],
                        [
                            -119.21641676756919,
                            40.797392355013585
                        ],
                        [
                            -119.21603608462982,
                            40.7970992646059
                        ]
                    ]
                ]
            }
        },
        {
            "type": "Feature",
            "properties": {
                "ref": "toilet"
            },
            "geometry": {
                "type": "Polygon",
                "coordinates": [
                    [
                        [
                            -119.21293055119526,
                            40.7945360958454
                        ],
                        [
                            -119.21305556830505,
                            40.794635166666666
                        ],
                        [
                            -119.2126629766802,
                            40.794919100948626
                        ],
                        [
                            -119.21253795922232,
                            40.79482002999245
                        ],
                        [
                            -119.21293055119526,
                            40.7945360958454
                        ]
                    ]
                ]
            }
        },
        {
            "type": "Feature",
            "properties": {
                "ref": "toilet"
            },
            "geometry": {
                "type": "Polygon",
                "coordinates": [
                    [
                        [
                            -119.2055276700346,
                            40.7897869481927
                        ],
                        [
                            -119.20539970596471,
                            40.78969006490963
                        ],
                        [
                            -119.20578359649403,
                            40.78939941463634
                        ],
                        [
                            -119.20591156019051,
                            40.78949629777806
                        ],
                        [
                            -119.2055276700346,
                            40.7897869481927
                        ]
                    ]
                ]
            }
        },
        {
            "type": "Feature",
            "properties": {
                "ref": "toilet"
            },
            "geometry": {
                "type": "Polygon",
                "coordinates": [
                    [
                        [
                            -119.20557376193062,
                            40.794713058399914
                        ],
                        [
                            -119.20561343999012,
                            40.79484673863331
                        ],
                        [
                            -119.20508370055393,
                            40.794936852701824
                        ],
                        [
                            -119.20504402252045,
                            40.79480317245484
                        ],
                        [
                            -119.20557376193062,
                            40.794713058399914
                        ]
                    ]
                ]
            }
        },
        {
            "type": "Feature",
            "properties": {
                "ref": "toilet"
            },
            "geometry": {
                "type": "Polygon",
                "coordinates": [
                    [
                        [
                            -119.20733763067052,
                            40.799699462674326
                        ],
                        [
                            -119.20738012293599,
                            40.799832646858306
                        ],
                        [
                            -119.20685230951653,
                            40.79992914520366
                        ],
                        [
                            -119.20680981727453,
                            40.799795961004094
                        ],
                        [
                            -119.20733763067052,
                            40.799699462674326
                        ]
                    ]
                ]
            }
        },
        {
            "type": "Feature",
            "properties": {
                "ref": "toilet"
            },
            "geometry": {
                "type": "Point",
                "coordinates": [
                    -119.1901425012159,
                    40.80380661154826
                ]
            }
        },
        {
            "type": "Feature",
            "properties": {
                "ref": "toilet"
            },
            "geometry": {
                "type": "Point",
                "coordinates": [
                    -119.1807369401851,
                    40.79668382370922
                ]
            }
        },
        {
            "type": "Feature",
            "properties": {
                "ref": "toilet"
            },
            "geometry": {
                "type": "Point",
                "coordinates": [
                    -119.20044718431156,
                    40.801601672904404
                ]
            }
        },
        {
            "type": "Feature",
            "properties": {
                "ref": "toilet"
            },
            "geometry": {
                "type": "Point",
                "coordinates": [
                    -119.19794397458455,
                    40.801224673090765
                ]
            }
        },
        {
            "type": "Feature",
            "properties": {
                "ref": "toilet"
            },
            "geometry": {
                "type": "Point",
                "coordinates": [
                    -119.19552722760216,
                    40.80060351615352
                ]
            }
        },
        {
            "type": "Feature",
            "properties": {
                "ref": "toilet"
            },
            "geometry": {
                "type": "Point",
                "coordinates": [
                    -119.19462004538914,
                    40.792191557575336
                ]
            }
        },
        {
            "type": "Feature",
            "properties": {
                "ref": "toilet"
            },
            "geometry": {
                "type": "Point",
                "coordinates": [
                    -119.20107124268134,
                    40.78734806236395
                ]
            }
        },
        {
            "type": "Feature",
            "properties": {
                "ref": "toilet"
            },
            "geometry": {
                "type": "Point",
                "coordinates": [
                    -119.19951363918531,
                    40.78494278718847
                ]
            }
        },
        {
            "type": "Feature",
            "properties": {
                "ref": "toilet"
            },
            "geometry": {
                "type": "Point",
                "coordinates": [
                    -119.18601475147004,
                    40.78385234391213
                ]
            }
        },
        {
            "type": "Feature",
            "properties": {
                "ref": "toilet"
            },
            "geometry": {
                "type": "Point",
                "coordinates": [
                    -119.19260397332319,
                    40.78519002267731
                ]
            }
        },
        {
            "type": "Feature",
            "properties": {
                "ref": "toilet"
            },
            "geometry": {
                "type": "Point",
                "coordinates": [
                    -119.1915044407011,
                    40.78207693561202
                ]
            }
        },
        {
            "type": "Feature",
            "properties": {
                "ref": "toilet"
            },
            "geometry": {
                "type": "Point",
                "coordinates": [
                    -119.19626684650397,
                    40.77838122296069
                ]
            }
        },
        {
            "type": "Feature",
            "properties": {
                "ref": "toilet"
            },
            "geometry": {
                "type": "Point",
                "coordinates": [
                    -119.1994275282293,
                    40.777355154180064
                ]
            }
        },
        {
            "type": "Feature",
            "properties": {
                "ref": "toilet"
            },
            "geometry": {
                "type": "Point",
                "coordinates": [
                    -119.20283115894385,
                    40.77698341305498
                ]
            }
        },
        {
            "type": "Feature",
            "properties": {
                "ref": "toilet"
            },
            "geometry": {
                "type": "Point",
                "coordinates": [
                    -119.20624588535638,
                    40.77729132309917
                ]
            }
        },
        {
            "type": "Feature",
            "properties": {
                "ref": "toilet"
            },
            "geometry": {
                "type": "Point",
                "coordinates": [
                    -119.20943909867736,
                    40.77825791077971
                ]
            }
        },
        {
            "type": "Feature",
            "properties": {
                "ref": "toilet"
            },
            "geometry": {
                "type": "Point",
                "coordinates": [
                    -119.1873600168386,
                    40.78026444906077
                ]
            }
        },
        {
            "type": "Feature",
            "properties": {
                "ref": "toilet"
            },
            "geometry": {
                "type": "Point",
                "coordinates": [
                    -119.1938743783926,
                    40.77524257881083
                ]
            }
        },
        {
            "type": "Feature",
            "properties": {
                "ref": "toilet"
            },
            "geometry": {
                "type": "Point",
                "coordinates": [
                    -119.19818914433378,
                    40.77385458772963
                ]
            }
        },
        {
            "type": "Feature",
            "properties": {
                "ref": "toilet"
            },
            "geometry": {
                "type": "Point",
                "coordinates": [
                    -119.20748428581962,
                    40.7737907566462
                ]
            }
        },
        {
            "type": "Feature",
            "properties": {
                "ref": "toilet"
            },
            "geometry": {
                "type": "Point",
                "coordinates": [
                    -119.21183158010987,
                    40.7751192666254
                ]
            }
        },
        {
            "type": "Feature",
            "properties": {
                "ref": "toilet"
            },
            "geometry": {
                "type": "Point",
                "coordinates": [
                    -119.2028311696848,
                    40.7725989793611
                ]
            }
        },
        {
            "type": "Feature",
            "properties": {
                "ref": "toilet"
            },
            "geometry": {
                "type": "Point",
                "coordinates": [
                    -119.18947082183446,
                    40.77689105758687
                ]
            }
        },
        {
            "type": "Feature",
            "properties": {
                "ref": "toilet"
            },
            "geometry": {
                "type": "Point",
                "coordinates": [
                    -119.19273287558505,
                    40.77953631083933
                ]
            }
        },
        {
            "type": "Feature",
            "properties": {
                "ref": "toilet"
            },
            "geometry": {
                "type": "Point",
                "coordinates": [
                    -119.21261548150255,
                    40.78013704641052
                ]
            }
        },
        {
            "type": "Feature",
            "properties": {
                "ref": "toilet"
            },
            "geometry": {
                "type": "Point",
                "coordinates": [
                    -119.21628688640547,
                    40.77671666781791
                ]
            }
        },
        {
            "type": "Feature",
            "properties": {
                "ref": "toilet"
            },
            "geometry": {
                "type": "Point",
                "coordinates": [
                    -119.21448355817908,
                    40.78207693561203
                ]
            }
        },
        {
            "type": "Feature",
            "properties": {
                "ref": "toilet"
            },
            "geometry": {
                "type": "Point",
                "coordinates": [
                    -119.2157607297937,
                    40.784494797653
                ]
            }
        },
        {
            "type": "Feature",
            "properties": {
                "ref": "toilet"
            },
            "geometry": {
                "type": "Point",
                "coordinates": [
                    -119.21616796582232,
                    40.78708056214835
                ]
            }
        },
        {
            "type": "Feature",
            "properties": {
                "ref": "toilet"
            },
            "geometry": {
                "type": "Point",
                "coordinates": [
                    -119.21567741460085,
                    40.78965802356973
                ]
            }
        },
        {
            "type": "Feature",
            "properties": {
                "ref": "toilet"
            },
            "geometry": {
                "type": "Point",
                "coordinates": [
                    -119.21432240779802,
                    40.79205152215989
                ]
            }
        },
        {
            "type": "Feature",
            "properties": {
                "ref": "toilet"
            },
            "geometry": {
                "type": "Point",
                "coordinates": [
                    -119.20944077655534,
                    40.795657713775356
                ]
            }
        },
        {
            "type": "Feature",
            "properties": {
                "ref": "toilet"
            },
            "geometry": {
                "type": "Point",
                "coordinates": [
                    -119.21862798204171,
                    40.78026444906076
                ]
            }
        },
        {
            "type": "Feature",
            "properties": {
                "ref": "toilet"
            },
            "geometry": {
                "type": "Point",
                "coordinates": [
                    -119.22038363152126,
                    40.78355623517588
                ]
            }
        },
        {
            "type": "Feature",
            "properties": {
                "ref": "toilet"
            },
            "geometry": {
                "type": "Point",
                "coordinates": [
                    -119.22030116585431,
                    40.79059538579527
                ]
            }
        },
        {
            "type": "Feature",
            "properties": {
                "ref": "toilet"
            },
            "geometry": {
                "type": "Point",
                "coordinates": [
                    -119.21846830308164,
                    40.79386304389182
                ]
            }
        },
        {
            "type": "Feature",
            "properties": {
                "ref": "toilet"
            },
            "geometry": {
                "type": "Point",
                "coordinates": [
                    -119.21183471608191,
                    40.79879603631882
                ]
            }
        },
        {
            "type": "Feature",
            "properties": {
                "ref": "toilet"
            },
            "geometry": {
                "type": "Point",
                "coordinates": [
                    -119.22195872011031,
                    40.787079758867705
                ]
            }
        },
        {
            "type": "Feature",
            "properties": {
                "ref": "toilet"
            },
            "geometry": {
                "type": "Point",
                "coordinates": [
                    -119.21629095289804,
                    40.7971977785742
                ]
            }
        },
        {
            "type": "Feature",
            "properties": {
                "ref": "toilet"
            },
            "geometry": {
                "type": "Point",
                "coordinates": [
                    -119.21279676385072,
                    40.79472759836329
                ]
            }
        },
        {
            "type": "Feature",
            "properties": {
                "ref": "toilet"
            },
            "geometry": {
                "type": "Point",
                "coordinates": [
                    -119.20565563317098,
                    40.789593181379175
                ]
            }
        },
        {
            "type": "Feature",
            "properties": {
                "ref": "toilet"
            },
            "geometry": {
                "type": "Point",
                "coordinates": [
                    -119.20532873124877,
                    40.79482495554747
                ]
            }
        },
        {
            "type": "Feature",
            "properties": {
                "ref": "toilet"
            },
            "geometry": {
                "type": "Point",
                "coordinates": [
                    -119.20709497009939,
                    40.799814303935094
                ]
            }
        }
    ]
}