{
    "type": "Feature",
    "properties": {
        "type": "other"
    },
    "geometry": {
        "type": "Polygon",
        "coordinates": [
            [
                [
                    -119.20534716641447,
                    40.79775437625733
                ],
                [
                    -119.20451337151191,
                    40.79765720355262
                ],
                [
                    -119.20368597220725,
                    40.79753258482661
                ],
                [
                    -119.20286654448269,
                    40.79738075745192
                ],
                [
                    -119.20205664910685,
                    40.79720201062618
                ],
                [
                    -119.2012578286566,
                    40.79699668482005
                ],
                [
                    -119.20047160457402,
                    40.79676517112753
                ],
                [
                    -119.20019441509638,
                    40.797271647753604
                ],
                [
                    -119.2010100910999,
                    40.79751183421891
                ],
                [
                    -119.20183883565059,
                    40.79772485179533
                ],
                [
                    -119.20267907027993,
                    40.79791029472851
                ],
                [
                    -119.20352919459013,
                    40.79806780978482
                ],
                [
                    -119.20438758930806,
                    40.79819709692569
                ],
                [
                    -119.20525261937513,
                    40.798297909880134
                ],
                [
                    -119.20534716641447,
                    40.79775437625733
                ]
            ]
        ]
    }
}