{
    "type": "FeatureCollection",
    "features": [
        {
            "type": "Feature",
            "properties": {
                "ref": "fence",
                "name": "Fence"
            },
            "geometry": {
                "type": "LineString",
                "coordinates": [
                    [
                        -119.21256248135269,
                        40.76080583453578
                    ],
                    [
                        -119.2375002657566,
                        40.77968468631506
                    ],
                    [
                        -119.22149495999936,
                        40.8034810705575
                    ],
                    [
                        -119.18665252036153,
                        40.79930251003746
                    ],
                    [
                        -119.18114477252979,
                        40.77292618710385
                    ],
                    [
                        -119.21256248135269,
                        40.76080583453578
                    ]
                ]
            }
        }
    ]
}