{
    "type": "FeatureCollection",
    "features": [
        {
            "type": "Feature",
            "properties": {
                "name": "The Man",
                "ref": "center",
                "NAME": "The Man"
            },
            "geometry": {
                "type": "Point",
                "coordinates": [
                    -119.20788409599999,
                    40.78324744800005
                ]
            }
        },
        {
            "type": "Feature",
            "properties": {
                "name": "Center Camp Plaza",
                "ref": "centerCamp",
                "NAME": "Center Camp Plaza"
            },
            "geometry": {
                "type": "Point",
                "coordinates": [
                    -119.2156294691827,
                    40.777381982440076
                ]
            }
        },
        {
            "type": "Feature",
            "properties": {
                "name": "DPW",
                "ref": "dpw",
                "NAME": "DPW"
            },
            "geometry": {
                "type": "Point",
                "coordinates": [
                    -119.2194840248272,
                    40.76803025219608
                ]
            }
        },
        {
            "type": "Feature",
            "properties": {
                "name": "Services",
                "ref": "services",
                "NAME": "Services"
            },
            "geometry": {
                "type": "Point",
                "coordinates": [
                    -119.22797770680337,
                    40.77446038847494
                ]
            }
        },
        {
            "type": "Feature",
            "properties": {
                "name": "Airport",
                "ref": "airport",
                "NAME": "Airport"
            },
            "geometry": {
                "type": "Point",
                "coordinates": [
                    -119.21250370222555,
                    40.76115512994449
                ]
            }
        },
        {
            "type": "Feature",
            "properties": {
                "name": "Rampart",
                "ref": "EmergencyClinic",
                "NAME": "Rampart"
            },
            "geometry": {
                "type": "Point",
                "coordinates": [
                    -119.21136901433515,
                    40.77671566332647
                ]
            }
        },
        {
            "type": "Feature",
            "properties": {
                "name": "Station 3",
                "ref": "firstAid",
                "NAME": "Station 3"
            },
            "geometry": {
                "type": "Point",
                "coordinates": [
                    -119.19905485585227,
                    40.77644332484632
                ]
            }
        },
        {
            "type": "Feature",
            "properties": {
                "name": "Station 9",
                "ref": "firstAid",
                "NAME": "Station 9"
            },
            "geometry": {
                "type": "Point",
                "coordinates": [
                    -119.21671514527414,
                    40.790050898082114
                ]
            }
        },
        {
            "type": "Feature",
            "properties": {
                "name": "Ranger HQ",
                "ref": "rangerHQ",
                "NAME": "Ranger HQ"
            },
            "geometry": {
                "type": "Point",
                "coordinates": [
                    -119.21284165159388,
                    40.77808028844645
                ]
            }
        },
        {
            "type": "Feature",
            "properties": {
                "name": "Ranger Station Berlin",
                "ref": "ranger",
                "NAME": "Ranger Station Berlin"
            },
            "geometry": {
                "type": "Point",
                "coordinates": [
                    -119.19889938003008,
                    40.77656103702236
                ]
            }
        },
        {
            "type": "Feature",
            "properties": {
                "name": "Ranger Station Tokyo",
                "ref": "ranger",
                "NAME": "Ranger Station Tokyo"
            },
            "geometry": {
                "type": "Point",
                "coordinates": [
                    -119.2168706210963,
                    40.78993316199534
                ]
            }
        },
        {
            "type": "Feature",
            "properties": {
                "name": "Greeters",
                "ref": "greeters",
                "NAME": "Greeters"
            },
            "geometry": {
                "type": "Point",
                "coordinates": [
                    -119.22477574582902,
                    40.77045363086724
                ]
            }
        },
        {
            "type": "Feature",
            "properties": {
                "ref": "ice",
                "name": "Ice Cubed Arctica 3",
                "NAME": "Ice Cubed Arctica 3"
            },
            "geometry": {
                "type": "Point",
                "coordinates": [
                    -119.19603689899215,
                    40.77458296950942
                ]
            }
        },
        {
            "type": "Feature",
            "properties": {
                "ref": "ice",
                "name": "Arctica Center Camp",
                "NAME": "Arctica Center Camp"
            },
            "geometry": {
                "type": "Point",
                "coordinates": [
                    -119.21632750765963,
                    40.778251822981076
                ]
            }
        },
        {
            "type": "Feature",
            "properties": {
                "ref": "ice",
                "name": "Ice Nine Arctica",
                "NAME": "Ice Nine Arctica"
            },
            "geometry": {
                "type": "Point",
                "coordinates": [
                    -119.21993227068862,
                    40.79175279681717
                ]
            }
        },
        {
            "type": "Feature",
            "properties": {
                "name": "The Temple",
                "ref": "temple",
                "NAME": "The Temple"
            },
            "geometry": {
                "type": "Point",
                "coordinates": [
                    -119.20144564136422,
                    40.78812201946589
                ]
            }
        },
        {
            "type": "Feature",
            "properties": {
                "ref": "bus",
                "name": "Burner Express Bus Depot",
                "NAME": "Burner Express Bus Depot"
            },
            "geometry": {
                "type": "Point",
                "coordinates": [
                    -119.2230589800205,
                    40.77325666374642
                ]
            }
        },
        {
            "type": "Feature",
            "properties": {
                "ref": "recycle",
                "name": "Recycle Camp",
                "NAME": "Recycle Camp"
            },
            "geometry": {
                "type": "Point",
                "coordinates": [
                    -119.21623128466759,
                    40.77658619371888
                ]
            }
        },
        {
            "type": "Feature",
            "properties": {
                "ref": "info",
                "name": "Playa Info",
                "NAME": "Playa Info"
            },
            "geometry": {
                "type": "Point",
                "coordinates": [
                    -119.21415749533588,
                    40.777971304545574
                ]
            }
        }
    ]
}