{
    "type": "FeatureCollection",
    "features": [
        {
            "type": "Feature",
            "properties": {
                "ref": "toilet"
            },
            "geometry": {
                "type": "Polygon",
                "coordinates": [
                    [
                        [
                            -119.1948881753475,
                            40.80028971066234
                        ],
                        [
                            -119.194760150987,
                            40.80019279706518
                        ],
                        [
                            -119.19514422238625,
                            40.79990205584921
                        ],
                        [
                            -119.19527224637291,
                            40.799998969304866
                        ],
                        [
                            -119.1948881753475,
                            40.80028971066234
                        ]
                    ]
                ]
            }
        },
        {
            "type": "Feature",
            "properties": {
                "ref": "toilet"
            },
            "geometry": {
                "type": "Polygon",
                "coordinates": [
                    [
                        [
                            -119.18548021154902,
                            40.79316469389814
                        ],
                        [
                            -119.18535220092835,
                            40.793067780301
                        ],
                        [
                            -119.18573623110875,
                            40.79277703908519
                        ],
                        [
                            -119.18586424135573,
                            40.79287395254087
                        ],
                        [
                            -119.18548021154902,
                            40.79316469389814
                        ]
                    ]
                ]
            }
        },
        {
            "type": "Feature",
            "properties": {
                "ref": "toilet"
            },
            "geometry": {
                "type": "Polygon",
                "coordinates": [
                    [
                        [
                            -119.20526923652997,
                            40.79767748319205
                        ],
                        [
                            -119.2054487339368,
                            40.797695376453014
                        ],
                        [
                            -119.20537782374304,
                            40.79810302653244
                        ],
                        [
                            -119.2051983252823,
                            40.79808513299333
                        ],
                        [
                            -119.20526923652997,
                            40.79767748319205
                        ]
                    ]
                ]
            }
        },
        {
            "type": "Feature",
            "properties": {
                "ref": "toilet"
            },
            "geometry": {
                "type": "Polygon",
                "coordinates": [
                    [
                        [
                            -119.20280254276157,
                            40.7972968205161
                        ],
                        [
                            -119.20297741705521,
                            40.79733230082157
                        ],
                        [
                            -119.20283681155077,
                            40.79772945362348
                        ],
                        [
                            -119.20266193630441,
                            40.797693973054
                        ],
                        [
                            -119.20280254276157,
                            40.7972968205161
                        ]
                    ]
                ]
            }
        },
        {
            "type": "Feature",
            "properties": {
                "ref": "toilet"
            },
            "geometry": {
                "type": "Polygon",
                "coordinates": [
                    [
                        [
                            -119.20042262647577,
                            40.79667562716265
                        ],
                        [
                            -119.20058988373285,
                            40.79672808704731
                        ],
                        [
                            -119.20038199180728,
                            40.79710794433315
                        ],
                        [
                            -119.2002147337253,
                            40.797055484206965
                        ],
                        [
                            -119.20042262647577,
                            40.79667562716265
                        ]
                    ]
                ]
            }
        },
        {
            "type": "Feature",
            "properties": {
                "ref": "toilet"
            },
            "geometry": {
                "type": "Polygon",
                "coordinates": [
                    [
                        [
                            -119.1993668927803,
                            40.78867102250294
                        ],
                        [
                            -119.19923889082264,
                            40.788574108905806
                        ],
                        [
                            -119.19962289501437,
                            40.78828336769009
                        ],
                        [
                            -119.19975089659845,
                            40.788380281145784
                        ],
                        [
                            -119.1993668927803,
                            40.78867102250294
                        ]
                    ]
                ]
            }
        },
        {
            "type": "Feature",
            "properties": {
                "ref": "toilet"
            },
            "geometry": {
                "type": "Polygon",
                "coordinates": [
                    [
                        [
                            -119.20581975699221,
                            40.78382601185019
                        ],
                        [
                            -119.20569176437269,
                            40.78372909825306
                        ],
                        [
                            -119.20607574055042,
                            40.78343835703746
                        ],
                        [
                            -119.20620373279644,
                            40.78353527049317
                        ],
                        [
                            -119.20581975699221,
                            40.78382601185019
                        ]
                    ]
                ]
            }
        },
        {
            "type": "Feature",
            "properties": {
                "ref": "toilet"
            },
            "geometry": {
                "type": "Polygon",
                "coordinates": [
                    [
                        [
                            -119.20426175797185,
                            40.78141998407783
                        ],
                        [
                            -119.20413376998877,
                            40.7813230704807
                        ],
                        [
                            -119.20451773225732,
                            40.78103232926515
                        ],
                        [
                            -119.20464571986687,
                            40.78112924272087
                        ],
                        [
                            -119.20426175797185,
                            40.78141998407783
                        ]
                    ]
                ]
            }
        },
        {
            "type": "Feature",
            "properties": {
                "ref": "toilet"
            },
            "geometry": {
                "type": "Polygon",
                "coordinates": [
                    [
                        [
                            -119.19091157887692,
                            40.78035130189853
                        ],
                        [
                            -119.19073564422717,
                            40.78031910563165
                        ],
                        [
                            -119.19086320013929,
                            40.77991944214072
                        ],
                        [
                            -119.19103913381575,
                            40.7799516381404
                        ],
                        [
                            -119.19091157887692,
                            40.78035130189853
                        ]
                    ]
                ]
            }
        },
        {
            "type": "Feature",
            "properties": {
                "ref": "toilet"
            },
            "geometry": {
                "type": "Polygon",
                "coordinates": [
                    [
                        [
                            -119.19752455712786,
                            40.7816926259002
                        ],
                        [
                            -119.19734795824779,
                            40.78166257498518
                        ],
                        [
                            -119.19746701702157,
                            40.781261410712986
                        ],
                        [
                            -119.19764361491495,
                            40.78129146135881
                        ],
                        [
                            -119.19752455712786,
                            40.7816926259002
                        ]
                    ]
                ]
            }
        },
        {
            "type": "Feature",
            "properties": {
                "ref": "toilet"
            },
            "geometry": {
                "type": "Polygon",
                "coordinates": [
                    [
                        [
                            -119.19667521105553,
                            40.778407104734825
                        ],
                        [
                            -119.19658664029068,
                            40.77852662946827
                        ],
                        [
                            -119.19611311371142,
                            40.77832542055123
                        ],
                        [
                            -119.19620168404862,
                            40.77820589575007
                        ],
                        [
                            -119.19667521105553,
                            40.778407104734825
                        ]
                    ]
                ]
            }
        },
        {
            "type": "Feature",
            "properties": {
                "ref": "toilet"
            },
            "geometry": {
                "type": "Polygon",
                "coordinates": [
                    [
                        [
                            -119.20136759260843,
                            40.77481618141063
                        ],
                        [
                            -119.20121198027923,
                            40.77488616452275
                        ],
                        [
                            -119.20093474049018,
                            40.77453263722834
                        ],
                        [
                            -119.2010903518274,
                            40.7744626539072
                        ],
                        [
                            -119.20136759260843,
                            40.77481618141063
                        ]
                    ]
                ]
            }
        },
        {
            "type": "Feature",
            "properties": {
                "ref": "toilet"
            },
            "geometry": {
                "type": "Polygon",
                "coordinates": [
                    [
                        [
                            -119.20446889964765,
                            40.773828744602625
                        ],
                        [
                            -119.20429467567887,
                            40.773865847978776
                        ],
                        [
                            -119.2041476918094,
                            40.77347003209929
                        ],
                        [
                            -119.20432191464293,
                            40.77343292846111
                        ],
                        [
                            -119.20446889964765,
                            40.773828744602625
                        ]
                    ]
                ]
            }
        },
        {
            "type": "Feature",
            "properties": {
                "ref": "toilet"
            },
            "geometry": {
                "type": "Polygon",
                "coordinates": [
                    [
                        [
                            -119.2078019608568,
                            40.7734827185923
                        ],
                        [
                            -119.2076209937343,
                            40.773484414776014
                        ],
                        [
                            -119.20761427385926,
                            40.77307327699943
                        ],
                        [
                            -119.20779523985733,
                            40.77307158053304
                        ],
                        [
                            -119.2078019608568,
                            40.7734827185923
                        ]
                    ]
                ]
            }
        },
        {
            "type": "Feature",
            "properties": {
                "ref": "toilet"
            },
            "geometry": {
                "type": "Polygon",
                "coordinates": [
                    [
                        [
                            -119.21113972823424,
                            40.77380167544059
                        ],
                        [
                            -119.21096434518459,
                            40.77376784889983
                        ],
                        [
                            -119.21109834677057,
                            40.773369399156834
                        ],
                        [
                            -119.21127372885769,
                            40.77340322543207
                        ],
                        [
                            -119.21113972823424,
                            40.77380167544059
                        ]
                    ]
                ]
            }
        },
        {
            "type": "Feature",
            "properties": {
                "ref": "toilet"
            },
            "geometry": {
                "type": "Polygon",
                "coordinates": [
                    [
                        [
                            -119.2142548329425,
                            40.774763888906755
                        ],
                        [
                            -119.21409698128963,
                            40.77469684388998
                        ],
                        [
                            -119.21436258014316,
                            40.774338228206396
                        ],
                        [
                            -119.2145204311033,
                            40.77440527300811
                        ],
                        [
                            -119.2142548329425,
                            40.774763888906755
                        ]
                    ]
                ]
            }
        },
        {
            "type": "Feature",
            "properties": {
                "ref": "toilet"
            },
            "geometry": {
                "type": "Polygon",
                "coordinates": [
                    [
                        [
                            -119.19250602222706,
                            40.77658448471418
                        ],
                        [
                            -119.19241692353012,
                            40.776703783194534
                        ],
                        [
                            -119.19194430628343,
                            40.7765013694134
                        ],
                        [
                            -119.1920334045489,
                            40.77638207086451
                        ],
                        [
                            -119.19250602222706,
                            40.77658448471418
                        ]
                    ]
                ]
            }
        },
        {
            "type": "Feature",
            "properties": {
                "ref": "toilet"
            },
            "geometry": {
                "type": "Polygon",
                "coordinates": [
                    [
                        [
                            -119.19896030102436,
                            40.77165929730724
                        ],
                        [
                            -119.19880438801253,
                            40.77172888605243
                        ],
                        [
                            -119.19852872361648,
                            40.77137465882499
                        ],
                        [
                            -119.19868463563382,
                            40.77130506986997
                        ],
                        [
                            -119.19896030102436,
                            40.77165929730724
                        ]
                    ]
                ]
            }
        },
        {
            "type": "Feature",
            "properties": {
                "ref": "toilet"
            },
            "geometry": {
                "type": "Polygon",
                "coordinates": [
                    [
                        [
                            -119.20322237473239,
                            40.77030762867666
                        ],
                        [
                            -119.20304799781856,
                            40.770344292490286
                        ],
                        [
                            -119.2029027629538,
                            40.76994810814268
                        ],
                        [
                            -119.20307713873177,
                            40.76991144406659
                        ],
                        [
                            -119.20322237473239,
                            40.77030762867666
                        ]
                    ]
                ]
            }
        },
        {
            "type": "Feature",
            "properties": {
                "ref": "toilet"
            },
            "geometry": {
                "type": "Polygon",
                "coordinates": [
                    [
                        [
                            -119.21238452832715,
                            40.770280206051126
                        ],
                        [
                            -119.21220930299609,
                            40.77024594118684
                        ],
                        [
                            -119.21234503378535,
                            40.76984782865808
                        ],
                        [
                            -119.21252025815691,
                            40.76988209325734
                        ],
                        [
                            -119.21238452832715,
                            40.770280206051126
                        ]
                    ]
                ]
            }
        },
        {
            "type": "Feature",
            "properties": {
                "ref": "toilet"
            },
            "geometry": {
                "type": "Polygon",
                "coordinates": [
                    [
                        [
                            -119.21666057929386,
                            40.77160632233985
                        ],
                        [
                            -119.21650302711411,
                            40.771538884598854
                        ],
                        [
                            -119.21677016905397,
                            40.77118093225679
                        ],
                        [
                            -119.21692772054487,
                            40.77124836978353
                        ],
                        [
                            -119.21666057929386,
                            40.77160632233985
                        ]
                    ]
                ]
            }
        },
        {
            "type": "Feature",
            "properties": {
                "ref": "toilet"
            },
            "geometry": {
                "type": "Polygon",
                "coordinates": [
                    [
                        [
                            -119.20780093768174,
                            40.76906977030876
                        ],
                        [
                            -119.20761997537494,
                            40.769070945758955
                        ],
                        [
                            -119.20761531865926,
                            40.768659791614176
                        ],
                        [
                            -119.2077962798432,
                            40.768658615881314
                        ],
                        [
                            -119.20780093768174,
                            40.76906977030876
                        ]
                    ]
                ]
            }
        },
        {
            "type": "Feature",
            "properties": {
                "ref": "toilet"
            },
            "geometry": {
                "type": "Polygon",
                "coordinates": [
                    [
                        [
                            -119.1945885662459,
                            40.77325749223606
                        ],
                        [
                            -119.19446167631921,
                            40.77335521874607
                        ],
                        [
                            -119.19407453923282,
                            40.773066937316365
                        ],
                        [
                            -119.19420142842232,
                            40.77296921066737
                        ],
                        [
                            -119.1945885662459,
                            40.77325749223606
                        ]
                    ]
                ]
            }
        },
        {
            "type": "Feature",
            "properties": {
                "ref": "toilet"
            },
            "geometry": {
                "type": "Polygon",
                "coordinates": [
                    [
                        [
                            -119.19749154316996,
                            40.776018826184355
                        ],
                        [
                            -119.19736067459824,
                            40.77592415245454
                        ],
                        [
                            -119.19773573218987,
                            40.77562684349107
                        ],
                        [
                            -119.1978666003624,
                            40.77572151707304
                        ],
                        [
                            -119.19749154316996,
                            40.776018826184355
                        ]
                    ]
                ]
            }
        },
        {
            "type": "Feature",
            "properties": {
                "ref": "toilet"
            },
            "geometry": {
                "type": "Polygon",
                "coordinates": [
                    [
                        [
                            -119.21723054690366,
                            40.77632536975604
                        ],
                        [
                            -119.21736266442363,
                            40.77623169557368
                        ],
                        [
                            -119.21773376727431,
                            40.77653183931772
                        ],
                        [
                            -119.2176016489711,
                            40.7766255133494
                        ],
                        [
                            -119.21723054690366,
                            40.77632536975604
                        ]
                    ]
                ]
            }
        },
        {
            "type": "Feature",
            "properties": {
                "ref": "toilet"
            },
            "geometry": {
                "type": "Polygon",
                "coordinates": [
                    [
                        [
                            -119.22105436489997,
                            40.773182436606824
                        ],
                        [
                            -119.22092528034054,
                            40.7730863728526
                        ],
                        [
                            -119.22130582840626,
                            40.7727931042796
                        ],
                        [
                            -119.22143491258255,
                            40.772889167889986
                        ],
                        [
                            -119.22105436489997,
                            40.773182436606824
                        ]
                    ]
                ]
            }
        },
        {
            "type": "Feature",
            "properties": {
                "ref": "toilet"
            },
            "geometry": {
                "type": "Polygon",
                "coordinates": [
                    [
                        [
                            -119.21915535906949,
                            40.77852662950212
                        ],
                        [
                            -119.21906678846399,
                            40.77840710470097
                        ],
                        [
                            -119.21954031419125,
                            40.77820589578393
                        ],
                        [
                            -119.21962888468782,
                            40.77832542051737
                        ],
                        [
                            -119.21915535906949,
                            40.77852662950212
                        ]
                    ]
                ]
            }
        },
        {
            "type": "Feature",
            "properties": {
                "ref": "toilet"
            },
            "geometry": {
                "type": "Polygon",
                "coordinates": [
                    [
                        [
                            -119.2203827895577,
                            40.78089875775291
                        ],
                        [
                            -119.22033808540003,
                            40.780765947360536
                        ],
                        [
                            -119.22086426472342,
                            40.78066439427453
                        ],
                        [
                            -119.22090896890211,
                            40.78079720464964
                        ],
                        [
                            -119.2203827895577,
                            40.78089875775291
                        ]
                    ]
                ]
            }
        },
        {
            "type": "Feature",
            "properties": {
                "ref": "toilet"
            },
            "geometry": {
                "type": "Polygon",
                "coordinates": [
                    [
                        [
                            -119.22075765173423,
                            40.78343061210813
                        ],
                        [
                            -119.22075986522437,
                            40.783293565932865
                        ],
                        [
                            -119.22130284779614,
                            40.78329859272855
                        ],
                        [
                            -119.22130063430126,
                            40.78343563890378
                        ],
                        [
                            -119.22075765173423,
                            40.78343061210813
                        ]
                    ]
                ]
            }
        },
        {
            "type": "Feature",
            "properties": {
                "ref": "toilet"
            },
            "geometry": {
                "type": "Polygon",
                "coordinates": [
                    [
                        [
                            -119.22025430418705,
                            40.785949660005635
                        ],
                        [
                            -119.22030328982885,
                            40.78581771754886
                        ],
                        [
                            -119.22082607192242,
                            40.7859289858005
                        ],
                        [
                            -119.22077708610121,
                            40.786060928236566
                        ],
                        [
                            -119.22025430418705,
                            40.785949660005635
                        ]
                    ]
                ]
            }
        },
        {
            "type": "Feature",
            "properties": {
                "ref": "toilet"
            },
            "geometry": {
                "type": "Polygon",
                "coordinates": [
                    [
                        [
                            -119.21890695532794,
                            40.788284222442826
                        ],
                        [
                            -119.21899937940597,
                            40.788166376418154
                        ],
                        [
                            -119.21946632574779,
                            40.788376306602096
                        ],
                        [
                            -119.21937390121353,
                            40.78849415255303
                        ],
                        [
                            -119.21890695532794,
                            40.788284222442826
                        ]
                    ]
                ]
            }
        },
        {
            "type": "Feature",
            "properties": {
                "ref": "toilet"
            },
            "geometry": {
                "type": "Polygon",
                "coordinates": [
                    [
                        [
                            -119.21409857135791,
                            40.791786805456496
                        ],
                        [
                            -119.21425645047366,
                            40.79171974289429
                        ],
                        [
                            -119.21452218980312,
                            40.79207832844178
                        ],
                        [
                            -119.21436430967526,
                            40.7921453907888
                        ],
                        [
                            -119.21409857135791,
                            40.791786805456496
                        ]
                    ]
                ]
            }
        },
        {
            "type": "Feature",
            "properties": {
                "ref": "toilet"
            },
            "geometry": {
                "type": "Polygon",
                "coordinates": [
                    [
                        [
                            -119.22332507582975,
                            40.77670378322879
                        ],
                        [
                            -119.2232359772928,
                            40.7765844846799
                        ],
                        [
                            -119.22370859369077,
                            40.77638207089877
                        ],
                        [
                            -119.22379769211625,
                            40.77650136937912
                        ],
                        [
                            -119.22332507582975,
                            40.77670378322879
                        ]
                    ]
                ]
            }
        },
        {
            "type": "Feature",
            "properties": {
                "ref": "toilet"
            },
            "geometry": {
                "type": "Polygon",
                "coordinates": [
                    [
                        [
                            -119.22503362875123,
                            40.77995519078503
                        ],
                        [
                            -119.22498833462075,
                            40.77982249518296
                        ],
                        [
                            -119.22551405167974,
                            40.77971960042999
                        ],
                        [
                            -119.22555934583053,
                            40.77985229601436
                        ],
                        [
                            -119.22503362875123,
                            40.77995519078503
                        ]
                    ]
                ]
            }
        },
        {
            "type": "Feature",
            "properties": {
                "ref": "toilet"
            },
            "geometry": {
                "type": "Polygon",
                "coordinates": [
                    [
                        [
                            -119.22490551528746,
                            40.78689336226463
                        ],
                        [
                            -119.22495391428309,
                            40.78676129560709
                        ],
                        [
                            -119.22547719591013,
                            40.78687122974509
                        ],
                        [
                            -119.22542879673813,
                            40.7870032963824
                        ],
                        [
                            -119.22490551528746,
                            40.78689336226463
                        ]
                    ]
                ]
            }
        },
        {
            "type": "Feature",
            "properties": {
                "ref": "toilet"
            },
            "geometry": {
                "type": "Polygon",
                "coordinates": [
                    [
                        [
                            -119.22307722280915,
                            40.790107300013055
                        ],
                        [
                            -119.22316912538535,
                            40.78998921929707
                        ],
                        [
                            -119.2236370144921,
                            40.790197959212854
                        ],
                        [
                            -119.22354511146358,
                            40.79031603985593
                        ],
                        [
                            -119.22307722280915,
                            40.790107300013055
                        ]
                    ]
                ]
            }
        },
        {
            "type": "Feature",
            "properties": {
                "ref": "toilet"
            },
            "geometry": {
                "type": "Polygon",
                "coordinates": [
                    [
                        [
                            -119.21650605296655,
                            40.79494445015007
                        ],
                        [
                            -119.2166636425492,
                            40.79487698834655
                        ],
                        [
                            -119.21693097660962,
                            40.795234899262574
                        ],
                        [
                            -119.21677338601727,
                            40.795302360851686
                        ],
                        [
                            -119.21650605296655,
                            40.79494445015007
                        ]
                    ]
                ]
            }
        },
        {
            "type": "Feature",
            "properties": {
                "ref": "toilet"
            },
            "geometry": {
                "type": "Polygon",
                "coordinates": [
                    [
                        [
                            -119.22658643438939,
                            40.78343060089789
                        ],
                        [
                            -119.22658794812763,
                            40.7832935492672
                        ],
                        [
                            -119.22713095230091,
                            40.78329698653675
                        ],
                        [
                            -119.22712943855946,
                            40.783434038167435
                        ],
                        [
                            -119.22658643438939,
                            40.78343060089789
                        ]
                    ]
                ]
            }
        },
        {
            "type": "Feature",
            "properties": {
                "ref": "toilet"
            },
            "geometry": {
                "type": "Polygon",
                "coordinates": [
                    [
                        [
                            -119.22092923775077,
                            40.79339612907177
                        ],
                        [
                            -119.22105832308766,
                            40.79330003565459
                        ],
                        [
                            -119.22143910789374,
                            40.79359321550183
                        ],
                        [
                            -119.22131002180001,
                            40.79368930877517
                        ],
                        [
                            -119.22092923775077,
                            40.79339612907177
                        ]
                    ]
                ]
            }
        },
        {
            "type": "Feature",
            "properties": {
                "ref": "toilet"
            },
            "geometry": {
                "type": "Polygon",
                "coordinates": [
                    [
                        [
                            -119.21780370701062,
                            40.79081762326163
                        ],
                        [
                            -119.21792875430995,
                            40.79091672647278
                        ],
                        [
                            -119.21753605632591,
                            40.791200745226035
                        ],
                        [
                            -119.21741100867833,
                            40.7911016418799
                        ],
                        [
                            -119.21780370701062,
                            40.79081762326163
                        ]
                    ]
                ]
            }
        },
        {
            "type": "Feature",
            "properties": {
                "ref": "toilet"
            },
            "geometry": {
                "type": "Polygon",
                "coordinates": [
                    [
                        [
                            -119.21040532100898,
                            40.78607183334141
                        ],
                        [
                            -119.21027732406118,
                            40.785974919744284
                        ],
                        [
                            -119.21066131322347,
                            40.78568417852863
                        ],
                        [
                            -119.21078930979768,
                            40.78578109198435
                        ],
                        [
                            -119.21040532100898,
                            40.78607183334141
                        ]
                    ]
                ]
            }
        },
        {
            "type": "Feature",
            "properties": {
                "ref": "toilet"
            },
            "geometry": {
                "type": "Polygon",
                "coordinates": [
                    [
                        [
                            -119.21044674917272,
                            40.790986259260194
                        ],
                        [
                            -119.21048642514972,
                            40.791119983408116
                        ],
                        [
                            -119.20995654143556,
                            40.791210097804495
                        ],
                        [
                            -119.2099168654846,
                            40.79107637364298
                        ],
                        [
                            -119.21044674917272,
                            40.790986259260194
                        ]
                    ]
                ]
            }
        },
        {
            "type": "Feature",
            "properties": {
                "ref": "toilet"
            },
            "geometry": {
                "type": "Polygon",
                "coordinates": [
                    [
                        [
                            -119.21221574680088,
                            40.79598744936292
                        ],
                        [
                            -119.21225824998659,
                            40.796120675218944
                        ],
                        [
                            -119.21173030094192,
                            40.796217203761074
                        ],
                        [
                            -119.21168779777972,
                            40.79608397788947
                        ],
                        [
                            -119.21221574680088,
                            40.79598744936292
                        ]
                    ]
                ]
            }
        },
        {
            "type": "Feature",
            "properties": {
                "ref": "toilet"
            },
            "geometry": {
                "type": "Point",
                "coordinates": [
                    -119.19501619877342,
                    40.80009588322039
                ]
            }
        },
        {
            "type": "Feature",
            "properties": {
                "ref": "toilet"
            },
            "geometry": {
                "type": "Point",
                "coordinates": [
                    -119.18560822123546,
                    40.7929708664563
                ]
            }
        },
        {
            "type": "Feature",
            "properties": {
                "ref": "toilet"
            },
            "geometry": {
                "type": "Point",
                "coordinates": [
                    -119.20532352987303,
                    40.797890254792705
                ]
            }
        },
        {
            "type": "Feature",
            "properties": {
                "ref": "toilet"
            },
            "geometry": {
                "type": "Point",
                "coordinates": [
                    -119.202819676918,
                    40.79751313700379
                ]
            }
        },
        {
            "type": "Feature",
            "properties": {
                "ref": "toilet"
            },
            "geometry": {
                "type": "Point",
                "coordinates": [
                    -119.2004023089353,
                    40.79689178568752
                ]
            }
        },
        {
            "type": "Feature",
            "properties": {
                "ref": "toilet"
            },
            "geometry": {
                "type": "Point",
                "coordinates": [
                    -119.19949489380394,
                    40.788477195061155
                ]
            }
        },
        {
            "type": "Feature",
            "properties": {
                "ref": "toilet"
            },
            "geometry": {
                "type": "Point",
                "coordinates": [
                    -119.20594774867794,
                    40.78363218440847
                ]
            }
        },
        {
            "type": "Feature",
            "properties": {
                "ref": "toilet"
            },
            "geometry": {
                "type": "Point",
                "coordinates": [
                    -119.20438974502122,
                    40.78122615663614
                ]
            }
        },
        {
            "type": "Feature",
            "properties": {
                "ref": "toilet"
            },
            "geometry": {
                "type": "Point",
                "coordinates": [
                    -119.19088738926479,
                    40.780135371952824
                ]
            }
        },
        {
            "type": "Feature",
            "properties": {
                "ref": "toilet"
            },
            "geometry": {
                "type": "Point",
                "coordinates": [
                    -119.19749578682804,
                    40.78147701823929
                ]
            }
        },
        {
            "type": "Feature",
            "properties": {
                "ref": "toilet"
            },
            "geometry": {
                "type": "Point",
                "coordinates": [
                    -119.19639416227656,
                    40.77836626262609
                ]
            }
        },
        {
            "type": "Feature",
            "properties": {
                "ref": "toilet"
            },
            "geometry": {
                "type": "Point",
                "coordinates": [
                    -119.20115116630132,
                    40.77467440926723
                ]
            }
        },
        {
            "type": "Feature",
            "properties": {
                "ref": "toilet"
            },
            "geometry": {
                "type": "Point",
                "coordinates": [
                    -119.20430829544472,
                    40.77364938828545
                ]
            }
        },
        {
            "type": "Feature",
            "properties": {
                "ref": "toilet"
            },
            "geometry": {
                "type": "Point",
                "coordinates": [
                    -119.20770811707692,
                    40.773277997725195
                ]
            }
        },
        {
            "type": "Feature",
            "properties": {
                "ref": "toilet"
            },
            "geometry": {
                "type": "Point",
                "coordinates": [
                    -119.21111903726177,
                    40.77358553723233
                ]
            }
        },
        {
            "type": "Feature",
            "properties": {
                "ref": "toilet"
            },
            "geometry": {
                "type": "Point",
                "coordinates": [
                    -119.21430870636965,
                    40.77455105850281
                ]
            }
        },
        {
            "type": "Feature",
            "properties": {
                "ref": "toilet"
            },
            "geometry": {
                "type": "Point",
                "coordinates": [
                    -119.19222516414739,
                    40.776542927046656
                ]
            }
        },
        {
            "type": "Feature",
            "properties": {
                "ref": "toilet"
            },
            "geometry": {
                "type": "Point",
                "coordinates": [
                    -119.1987445120718,
                    40.77151697801365
                ]
            }
        },
        {
            "type": "Feature",
            "properties": {
                "ref": "toilet"
            },
            "geometry": {
                "type": "Point",
                "coordinates": [
                    -119.20306256855913,
                    40.770127868344055
                ]
            }
        },
        {
            "type": "Feature",
            "properties": {
                "ref": "toilet"
            },
            "geometry": {
                "type": "Point",
                "coordinates": [
                    -119.21236478081639,
                    40.77006401728835
                ]
            }
        },
        {
            "type": "Feature",
            "properties": {
                "ref": "toilet"
            },
            "geometry": {
                "type": "Point",
                "coordinates": [
                    -119.2167153740017,
                    40.771393627244755
                ]
            }
        },
        {
            "type": "Feature",
            "properties": {
                "ref": "toilet"
            },
            "geometry": {
                "type": "Point",
                "coordinates": [
                    -119.20770812788977,
                    40.7688647808908
                ]
            }
        },
        {
            "type": "Feature",
            "properties": {
                "ref": "toilet"
            },
            "geometry": {
                "type": "Point",
                "coordinates": [
                    -119.19433155255506,
                    40.77316221474146
                ]
            }
        },
        {
            "type": "Feature",
            "properties": {
                "ref": "toilet"
            },
            "geometry": {
                "type": "Point",
                "coordinates": [
                    -119.19761363758013,
                    40.77582283480075
                ]
            }
        },
        {
            "type": "Feature",
            "properties": {
                "ref": "toilet"
            },
            "geometry": {
                "type": "Point",
                "coordinates": [
                    -119.21748215689317,
                    40.776428604499216
                ]
            }
        },
        {
            "type": "Feature",
            "properties": {
                "ref": "toilet"
            },
            "geometry": {
                "type": "Point",
                "coordinates": [
                    -119.22118009655732,
                    40.772987770407255
                ]
            }
        },
        {
            "type": "Feature",
            "properties": {
                "ref": "toilet"
            },
            "geometry": {
                "type": "Point",
                "coordinates": [
                    -119.21934783660313,
                    40.77836626262609
                ]
            }
        },
        {
            "type": "Feature",
            "properties": {
                "ref": "toilet"
            },
            "geometry": {
                "type": "Point",
                "coordinates": [
                    -119.22062352714582,
                    40.7807815760094
                ]
            }
        },
        {
            "type": "Feature",
            "properties": {
                "ref": "toilet"
            },
            "geometry": {
                "type": "Point",
                "coordinates": [
                    -119.221030249764,
                    40.78336460241833
                ]
            }
        },
        {
            "type": "Feature",
            "properties": {
                "ref": "toilet"
            },
            "geometry": {
                "type": "Point",
                "coordinates": [
                    -119.22054018800989,
                    40.78593932289789
                ]
            }
        },
        {
            "type": "Feature",
            "properties": {
                "ref": "toilet"
            },
            "geometry": {
                "type": "Point",
                "coordinates": [
                    -119.2191866404238,
                    40.788330264504026
                ]
            }
        },
        {
            "type": "Feature",
            "properties": {
                "ref": "toilet"
            },
            "geometry": {
                "type": "Point",
                "coordinates": [
                    -119.21431038032749,
                    40.79193256689534
                ]
            }
        },
        {
            "type": "Feature",
            "properties": {
                "ref": "toilet"
            },
            "geometry": {
                "type": "Point",
                "coordinates": [
                    -119.2235168347324,
                    40.77654292704665
                ]
            }
        },
        {
            "type": "Feature",
            "properties": {
                "ref": "toilet"
            },
            "geometry": {
                "type": "Point",
                "coordinates": [
                    -119.22527384022055,
                    40.77983739560308
                ]
            }
        },
        {
            "type": "Feature",
            "properties": {
                "ref": "toilet"
            },
            "geometry": {
                "type": "Point",
                "coordinates": [
                    -119.2251913555547,
                    40.7868822959998
                ]
            }
        },
        {
            "type": "Feature",
            "properties": {
                "ref": "toilet"
            },
            "geometry": {
                "type": "Point",
                "coordinates": [
                    -119.22335711853755,
                    40.79015262959473
                ]
            }
        },
        {
            "type": "Feature",
            "properties": {
                "ref": "toilet"
            },
            "geometry": {
                "type": "Point",
                "coordinates": [
                    -119.21671851453566,
                    40.795089674652715
                ]
            }
        },
        {
            "type": "Feature",
            "properties": {
                "ref": "toilet"
            },
            "geometry": {
                "type": "Point",
                "coordinates": [
                    -119.22685869334435,
                    40.783363793717314
                ]
            }
        },
        {
            "type": "Feature",
            "properties": {
                "ref": "toilet"
            },
            "geometry": {
                "type": "Point",
                "coordinates": [
                    -119.22118417263303,
                    40.793494672250844
                ]
            }
        },
        {
            "type": "Feature",
            "properties": {
                "ref": "toilet"
            },
            "geometry": {
                "type": "Point",
                "coordinates": [
                    -119.2176698815812,
                    40.79100918421008
                ]
            }
        },
        {
            "type": "Feature",
            "properties": {
                "ref": "toilet"
            },
            "geometry": {
                "type": "Point",
                "coordinates": [
                    -119.21053331702282,
                    40.78587800589967
                ]
            }
        },
        {
            "type": "Feature",
            "properties": {
                "ref": "toilet"
            },
            "geometry": {
                "type": "Point",
                "coordinates": [
                    -119.21020164531066,
                    40.79109817852895
                ]
            }
        },
        {
            "type": "Feature",
            "properties": {
                "ref": "toilet"
            },
            "geometry": {
                "type": "Point",
                "coordinates": [
                    -119.21197302387728,
                    40.7961023265581
                ]
            }
        }
    ]
}